{
  "type": "FeatureCollection",
  "features": [
    {
      "type": "Feature",
      "properties": {
        "norad_id": 41026,
        "name": "YAOGAN-28",
        "group": "resource",
        "lat": -63.525697794052896,
        "lon": 152.7598030191033,
        "alt_km": 506.58768791256716,
        "timestamp": "2025-12-26T11:25:44.876638+00:00",
        "meta_object_name": "YAOGAN-28",
        "meta_object_id": "2015-064A",
        "meta_epoch": "2025-12-26T05:24:39.278304",
        "meta_mean_motion": 15.24565035,
        "meta_eccentricity": 0.0012651,
        "meta_inclination": 97.2815,
        "meta_ra_of_asc_node": 137.6391,
        "meta_arg_of_pericenter": 83.28,
        "meta_mean_anomaly": 276.9877,
        "meta_ephemeris_type": 0,
        "meta_classification_type": "U",
        "meta_norad_cat_id": 41026,
        "meta_element_set_no": 999,
        "meta_rev_at_epoch": 56430,
        "meta_bstar": 0.00032352,
        "meta_mean_motion_dot": 7.918e-05,
        "meta_mean_motion_ddot": 0,
        "tle_line1": "1 41026U 15064A   25360.22545461  .00007918  00000+0  32352-3 0  9996",
        "tle_line2": "2 41026  97.2815 137.6391 0012651  83.2800 276.9877 15.24565035564303"
      },
      "geometry": {
        "type": "Point",
        "coordinates": [
          152.7598030191033,
          -63.525697794052896
        ]
      }
    },
    {
      "type": "Feature",
      "properties": {
        "norad_id": 41038,
        "name": "YAOGAN-29",
        "group": "resource",
        "lat": 39.24395163889428,
        "lon": -149.69478898038116,
        "alt_km": 616.5723722545063,
        "timestamp": "2025-12-26T11:25:44.876648+00:00",
        "meta_object_name": "YAOGAN-29",
        "meta_object_id": "2015-069A",
        "meta_epoch": "2025-12-26T04:19:16.439232",
        "meta_mean_motion": 14.82899112,
        "meta_eccentricity": 9.71e-05,
        "meta_inclination": 98.0208,
        "meta_ra_of_asc_node": 23.394,
        "meta_arg_of_pericenter": 159.4459,
        "meta_mean_anomaly": 200.6793,
        "meta_ephemeris_type": 0,
        "meta_classification_type": "U",
        "meta_norad_cat_id": 41038,
        "meta_element_set_no": 999,
        "meta_rev_at_epoch": 54498,
        "meta_bstar": 0.00013342,
        "meta_mean_motion_dot": 1.027e-05,
        "meta_mean_motion_ddot": 0,
        "tle_line1": "1 41038U 15069A   25360.18005138  .00001027  00000+0  13342-3 0  9994",
        "tle_line2": "2 41038  98.0208  23.3940 0000971 159.4459 200.6793 14.82899112544982"
      },
      "geometry": {
        "type": "Point",
        "coordinates": [
          -149.69478898038116,
          39.24395163889428
        ]
      }
    },
    {
      "type": "Feature",
      "properties": {
        "norad_id": 41167,
        "name": "KENT RIDGE 1",
        "group": "resource",
        "lat": 4.933249037955658,
        "lon": 128.04532115124738,
        "alt_km": 493.7912535102532,
        "timestamp": "2025-12-26T11:25:44.876657+00:00",
        "meta_object_name": "KENT RIDGE 1",
        "meta_object_id": "2015-077B",
        "meta_epoch": "2025-12-25T16:28:00.882048",
        "meta_mean_motion": 15.21731933,
        "meta_eccentricity": 0.00085371,
        "meta_inclination": 14.9792,
        "meta_ra_of_asc_node": 115.0675,
        "meta_arg_of_pericenter": 313.4673,
        "meta_mean_anomaly": 46.4939,
        "meta_ephemeris_type": 0,
        "meta_classification_type": "U",
        "meta_norad_cat_id": 41167,
        "meta_element_set_no": 999,
        "meta_rev_at_epoch": 55461,
        "meta_bstar": 0.00017413045,
        "meta_mean_motion_dot": 4.822e-05,
        "meta_mean_motion_ddot": 0,
        "tle_line1": "1 41167U 15077B   25359.68612132  .00004822  00000+0  17413-3 0  9996",
        "tle_line2": "2 41167  14.9792 115.0675 0008537 313.4673  46.4939 15.21731933554619"
      },
      "geometry": {
        "type": "Point",
        "coordinates": [
          128.04532115124738,
          4.933249037955658
        ]
      }
    },
    {
      "type": "Feature",
      "properties": {
        "norad_id": 41194,
        "name": "GAOFEN-4",
        "group": "resource",
        "lat": -0.18947094310040422,
        "lon": 12.343439202393572,
        "alt_km": 35798.169294258776,
        "timestamp": "2025-12-26T11:25:44.876669+00:00",
        "meta_object_name": "GAOFEN-4",
        "meta_object_id": "2015-083A",
        "meta_epoch": "2025-12-26T01:30:38.537856",
        "meta_mean_motion": 1.00269501,
        "meta_eccentricity": 0.0002823,
        "meta_inclination": 0.2023,
        "meta_ra_of_asc_node": 81.9267,
        "meta_arg_of_pericenter": 93.8654,
        "meta_mean_anomaly": 47.3871,
        "meta_ephemeris_type": 0,
        "meta_classification_type": "U",
        "meta_norad_cat_id": 41194,
        "meta_element_set_no": 999,
        "meta_rev_at_epoch": 3679,
        "meta_bstar": 0,
        "meta_mean_motion_dot": -3.13e-06,
        "meta_mean_motion_ddot": 0,
        "tle_line1": "1 41194U 15083A   25360.06294604 -.00000313  00000+0  00000+0 0  9999",
        "tle_line2": "2 41194   0.2023  81.9267 0002823  93.8654  47.3871  1.00269501 36790"
      },
      "geometry": {
        "type": "Point",
        "coordinates": [
          12.343439202393572,
          -0.18947094310040422
        ]
      }
    },
    {
      "type": "Feature",
      "properties": {
        "norad_id": 41240,
        "name": "JASON-3",
        "group": "resource",
        "lat": -64.1484774760869,
        "lon": 15.529983056547636,
        "alt_km": 1311.7752916734016,
        "timestamp": "2025-12-26T11:25:44.876679+00:00",
        "meta_object_name": "JASON-3",
        "meta_object_id": "2016-002A",
        "meta_epoch": "2025-12-26T00:45:44.858016",
        "meta_mean_motion": 12.87627106,
        "meta_eccentricity": 0.0007317,
        "meta_inclination": 66.0406,
        "meta_ra_of_asc_node": 129.8791,
        "meta_arg_of_pericenter": 271.6419,
        "meta_mean_anomaly": 88.3762,
        "meta_ephemeris_type": 0,
        "meta_classification_type": "U",
        "meta_norad_cat_id": 41240,
        "meta_element_set_no": 999,
        "meta_rev_at_epoch": 46495,
        "meta_bstar": 0.00014638,
        "meta_mean_motion_dot": -2.5e-07,
        "meta_mean_motion_ddot": 0,
        "tle_line1": "1 41240U 16002A   25360.03176919 -.00000025  00000+0  14638-3 0  9994",
        "tle_line2": "2 41240  66.0406 129.8791 0007317 271.6419  88.3762 12.87627106464952"
      },
      "geometry": {
        "type": "Point",
        "coordinates": [
          15.529983056547636,
          -64.1484774760869
        ]
      }
    },
    {
      "type": "Feature",
      "properties": {
        "norad_id": 41335,
        "name": "SENTINEL-3A",
        "group": "resource",
        "lat": -52.30882226484266,
        "lon": 76.63216563465878,
        "alt_km": 810.1414566861895,
        "timestamp": "2025-12-26T11:25:44.876688+00:00",
        "meta_object_name": "SENTINEL-3A",
        "meta_object_id": "2016-011A",
        "meta_epoch": "2025-12-26T03:15:44.402112",
        "meta_mean_motion": 14.2673572,
        "meta_eccentricity": 8.83e-05,
        "meta_inclination": 98.6296,
        "meta_ra_of_asc_node": 64.9615,
        "meta_arg_of_pericenter": 97.6166,
        "meta_mean_anomaly": 262.5115,
        "meta_ephemeris_type": 0,
        "meta_classification_type": "U",
        "meta_norad_cat_id": 41335,
        "meta_element_set_no": 999,
        "meta_rev_at_epoch": 51338,
        "meta_bstar": 7.0407e-05,
        "meta_mean_motion_dot": 1.27e-06,
        "meta_mean_motion_ddot": 0,
        "tle_line1": "1 41335U 16011A   25360.13593058  .00000127  00000+0  70407-4 0  9996",
        "tle_line2": "2 41335  98.6296  64.9615 0000883  97.6166 262.5115 14.26735720513382"
      },
      "geometry": {
        "type": "Point",
        "coordinates": [
          76.63216563465878,
          -52.30882226484266
        ]
      }
    },
    {
      "type": "Feature",
      "properties": {
        "norad_id": 41556,
        "name": "ZIYUAN 3-02 (ZY 3-02)",
        "group": "resource",
        "lat": 44.50737826105881,
        "lon": 67.070594305656,
        "alt_km": 505.21431820699127,
        "timestamp": "2025-12-26T11:25:44.876698+00:00",
        "meta_object_name": "ZIYUAN 3-02 (ZY 3-02)",
        "meta_object_id": "2016-033A",
        "meta_epoch": "2025-12-26T04:55:01.070400",
        "meta_mean_motion": 15.21245819,
        "meta_eccentricity": 0.0011527,
        "meta_inclination": 97.4023,
        "meta_ra_of_asc_node": 74.1459,
        "meta_arg_of_pericenter": 195.9995,
        "meta_mean_anomaly": 164.0879,
        "meta_ephemeris_type": 0,
        "meta_classification_type": "U",
        "meta_norad_cat_id": 41556,
        "meta_element_set_no": 999,
        "meta_rev_at_epoch": 53168,
        "meta_bstar": 0.00032963,
        "meta_mean_motion_dot": 7.307e-05,
        "meta_mean_motion_ddot": 0,
        "tle_line1": "1 41556U 16033A   25360.20487350  .00007307  00000+0  32963-3 0  9991",
        "tle_line2": "2 41556  97.4023  74.1459 0011527 195.9995 164.0879 15.21245819531687"
      },
      "geometry": {
        "type": "Point",
        "coordinates": [
          67.070594305656,
          44.50737826105881
        ]
      }
    }
  ]
}